ONEWEB-0555             
1 56057U 23043M   26124.05303117  .00000040  00000+0  70390-4 0  9996
2 56057  87.9093 237.5341 0001931 120.4827 239.6494 13.16592678153154
ONEWEB-0557             
1 56058U 23043N   26124.06728751  .00000035  00000+0  58704-4 0  9992
2 56058  87.9093 237.5421 0002987 119.2535 240.8894 13.16594269153154
ONEWEB-0558             
1 56059U 23043P   26124.08598875  .00000029  00000+0  38696-4 0  9998
2 56059  87.9228 252.7570 0001627  87.8900 272.2420 13.21823683152418
ONEWEB-0559             
1 56060U 23043Q   26124.07421532 -.00000018  00000+0 -74012-4 0  9996
2 56060  87.9229 252.7530 0001820  93.5739 266.5603 13.21823955152428
ONEWEB-0566             
1 56061U 23043R   26124.06748676  .00000035  00000+0  53728-4 0  9995
2 56061  87.9230 252.7530 0001767  90.8831 269.2506 13.21824675152404
ONEWEB-0568             
1 56062U 23043S   26124.00869632  .00000028  00000+0  39650-4 0  9996
2 56062  87.9093 237.5443 0001879 110.9218 249.2114 13.16595871153167
ONEWEB-0574             
1 56063U 23043T   26124.06076801  .00000093  00000+0  19347-3 0  9993
2 56063  87.9239 252.7534 0002074 103.6033 256.5332 13.21827353152444
ONEWEB-0575             
1 56064U 23043U   26124.07837088  .00000079  00000+0  17428-3 0  9999
2 56064  87.9093 237.5270 0002274 110.6874 249.4501 13.16594866153167
ONEWEB-0576             
1 56065U 23043V   26124.05937287  .00000149  00000+0  35607-3 0  9997
2 56065  87.9094 237.5368 0002096 107.3754 252.7607 13.16594567153150
ONEWEB-0577             
1 56066U 23043W   26124.06570075  .00000101  00000+0  23119-3 0  9990
2 56066  87.9093 237.5336 0002679 109.6016 250.5404 13.16593995153186
ONEWEB-0578             
1 56067U 23043X   26124.04730620 -.00000008  00000+0 -51394-4 0  9998
2 56067  87.9233 252.7574 0001849 110.5338 249.5994 13.21827275152405
ONEWEB-0579             
1 56068U 23043Y   26124.11458949 -.00000003  00000+0 -39170-4 0  9991
2 56068  87.9237 252.7387 0001966  91.8555 268.2804 13.21827614152421
ONEWEB-0581             
1 56069U 23043Z   26124.07203595  .00000124  00000+0  29126-3 0  9993
2 56069  87.9093 237.5438 0002513 106.2885 253.8522 13.16593664153153
ONEWEB-0609             
1 56070U 23043AA  26124.14418875  .00000116  00000+0  27507-3 0  9994
2 56070  87.8960 267.9945 0001709  98.6163 261.5161 13.15549946150645
ONEWEB-0613             
1 56071U 23043AB  26124.14182132  .00000036  00000+0  61402-4 0  9993
2 56071  87.8959 268.0070 0001792  89.6921 270.4415 13.15548611150648
ONEWEB-0630             
1 56072U 23043AC  26124.13706594  .00000005  00000+0 -20520-4 0  9990
2 56072  87.8960 267.9784 0001821  90.4808 269.6531 13.15548287150635
ONEWEB-0632             
1 56073U 23043AD  26124.13231198 -.00000083  00000+0 -25492-3 0  9993
2 56073  87.8961 267.9974 0002006  99.3676 260.7681 13.15548827150633
ONEWEB-0633             
1 56074U 23043AE  26124.12596059 -.00000110  00000+0 -32744-3 0  9992
2 56074  87.8970 267.9706 0001640  86.2409 273.8909 13.15548151150615
ONEWEB-0634             
1 56075U 23043AF  26124.11170737 -.00000114  00000+0 -33794-3 0  9993
2 56075  87.8962 268.0172 0001576 105.5601 254.5703 13.15549368150601
ONEWEB-0635             
1 56076U 23043AG  26124.10696139 -.00000107  00000+0 -31960-3 0  9997
2 56076  87.8972 267.9771 0002110 100.6194 259.5174 13.15548664150632
ONEWEB-0636             
1 56077U 23043AH  26124.09903484  .00000033  00000+0  53476-4 0  9993
2 56077  87.8964 267.9883 0002039 100.7611 259.3749 13.15549001150613
ONEWEB-0637             
1 56078U 23043AJ  26124.09269503  .00000071  00000+0  15319-3 0  9996
2 56078  87.8961 268.0070 0001889 108.2637 251.8699 13.15548781150631
ONEWEB-0647             
1 56079U 23043AK  26124.08792800  .00000077  00000+0  16994-3 0  9993
2 56079  87.8961 268.0203 0001945  95.3834 264.7518 13.15549668150625
ONEWEB-0651             
1 56080U 23043AL  26124.15924758  .00000282  00000+0  71581-3 0  9993
2 56080  87.8960 268.0002 0002010 104.4273 255.7081 13.15549080151833
ONEWEB-0718             
1 56081U 23043AM  26124.15450240  .00000133  00000+0  31935-3 0  9998
2 56081  87.8959 267.9817 0001332 104.8027 255.3251 13.15547735150649
ONEWEB-0561             
1 56710U 23068A   26123.88004330  .00000042  00000+0  70423-4 0  9993
2 56710  87.9149 283.2830 0002221  94.4274 265.7113 13.20769959143657
ONEWEB-0668             
1 56711U 23068B   26124.04669630 -.00000043  00000+0 -14591-3 0  9999
2 56711  87.9097 237.5356 0001692 117.3500 242.7803 13.16595007145977
ONEWEB-0676             
1 56712U 23068C   26124.05461916  .00000178  00000+0  43170-3 0  9990
2 56712  87.9094 237.5411 0002322 103.8211 256.3179 13.16592822145897
ONEWEB-0677             
1 56713U 23068D   26124.17202288  .00000030  00000+0  41895-4 0  9999
2 56713  87.9147 283.2168 0001939 107.9915 252.1430 13.20770120143990
ONEWEB-0678             
1 56714U 23068E   26124.12279653 -.00000119  00000+0 -34987-3 0  9998
2 56714  87.8971 267.9758 0001963  90.5066 269.6290 13.15549395143494
ONEWEB-0679             
1 56715U 23068F   26124.01345029  .00000028  00000+0  40557-4 0  9996
2 56715  87.9101 237.5399 0002132 117.9585 242.1761 13.16595408145919
ONEWEB-0680             
1 56716U 23068G   26124.11628663  .00000001  00000+0 -29986-4 0  9991
2 56716  87.9239 252.7399 0001791 117.3617 242.7699 13.21824355145278
ONEWEB-0681             
1 56717U 23068H   26124.09692238 -.00000062  00000+0 -18249-3 0  9995
2 56717  87.9229 252.7473 0002925 104.0176 256.1284 13.21828510145269
ONEWEB-0682             
1 56718U 23068J   26124.14655249  .00000118  00000+0  27834-3 0  9993
2 56718  87.8966 267.9727 0001684 116.3467 243.7837 13.15550053143662
ONEWEB-0683             
1 56719U 23068K   26124.09428404  .00000091  00000+0  20792-3 0  9995
2 56719  87.8973 267.9814 0001634 105.7252 254.4058 13.15549139143620
ONEWEB-0684             
1 56720U 23068L   26124.10219389 -.00000001  00000+0 -37132-4 0  9999
2 56720  87.8971 267.9710 0001883  55.3454 304.7854 13.15549904143459
ONEWEB-0686             
1 56721U 23068M   26124.04986363 -.00000056  00000+0 -17889-3 0  9992
2 56721  87.9082 237.5613 0001574 102.0838 258.0469 13.16593908145901
ONEWEB-0694             
1 56722U 23068N   26124.05618826  .00000091  00000+0  20448-3 0  9992
2 56722  87.9103 237.5158 0001734 115.8665 244.2645 13.16595779145965
ONEWEB-0696             
1 56723U 23068P   26124.13547203 -.00000001  00000+0 -35825-4 0  9991
2 56723  87.8957 268.0058 0001968  85.0870 275.0485 13.15548801143577
ONEWEB-0703             
1 56724U 23068Q   26124.14497899  .00000098  00000+0  22664-3 0  9998
2 56724  87.8962 267.9849 0002564  84.7774 275.3649 13.15549666143465
ONEWEB-0721             
1 56725U 23068R   26124.18187052  .00000082  00000+0  16124-3 0  9997
2 56725  86.6733  99.5624 0001992  84.7568 275.3792 13.22466619152120
ONEWEB-0015             
1 61594U 24188A   26124.13362729 -.00000110  00000+0 -34693-3 0  9997
2 61594  87.8921  29.8535 0002098  94.9270 265.2097 13.11415705 78682
ONEWEB-0687             
1 61595U 24188B   26124.11187231  .00000032  00000+0  49869-4 0  9992
2 61595  87.9170  14.6389 0001626  97.2279 262.9037 13.17647934 80093
ONEWEB-0688             
1 61596U 24188C   26124.14056322 -.00000026  00000+0 -10049-3 0  9994
2 61596  87.9160  14.6329 0002561 107.4908 252.6503 13.17648738 80096
ONEWEB-0689             
1 61597U 24188D   26124.01494899  .00000102  00000+0  25110-3 0  9994
2 61597  87.8944  29.8275 0001505  82.3796 277.7502 13.11419791 78663
ONEWEB-0690             
1 61598U 24188E   26124.17773803  .00000486  00000+0  13341-2 0  9994
2 61598  87.8933  29.8109 0002395  70.4062 289.7324 13.11417477 78866
ONEWEB-0691             
1 61599U 24188F   26124.17264191  .00000317  00000+0  85993-3 0  9996
2 61599  87.8943  29.7164 0001914  91.7980 268.3367 13.11419174 78719
ONEWEB-0692             
1 61600U 24188G   26124.11668507  .00000520  00000+0  14319-2 0  9991
2 61600  87.8921  29.8490 0001326  55.4271 304.6982 13.11416510 78693
ONEWEB-0693             
1 61601U 24188H   26124.15237648  .00000059  00000+0  11807-3 0  9991
2 61601  87.9167  14.6522 0002591  75.1842 284.9576 13.17648721 80085
ONEWEB-0695             
1 61602U 24188J   26124.01664693  .00000116  00000+0  29170-3 0  9997
2 61602  87.8923  29.8608 0001284  72.3494 287.7774 13.11419092 78672
ONEWEB-0697             
1 61603U 24188K   26124.12516102  .00000241  00000+0  64350-3 0  9999
2 61603  87.8922  29.8292 0001450  55.1781 304.9484 13.11415568 78678
ONEWEB-0698             
1 61604U 24188L   26124.17941536  .00000535  00000+0  14750-2 0  9992
2 61604  87.8922  29.8332 0002290  47.7314 312.4008 13.11419127 78701
ONEWEB-0699             
1 61605U 24188M   26124.08089112  .00000695  00000+0  19554-2 0  9990
2 61605  87.8853  45.0428 0001640  58.1399 301.9888 13.10373199 77534
ONEWEB-0700             
1 61606U 24188N   26124.00618884  .00000575  00000+0  16103-2 0  9991
2 61606  87.8870  44.9591 0001283  64.2905 295.8355 13.10371602 77512
ONEWEB-0701             
1 61607U 24188P   26124.17549190 -.00000194  00000+0 -59080-3 0  9994
2 61607  87.8848  45.0225 0001571  52.5896 307.5374 13.10370543 77541
ONEWEB-0702             
1 61608U 24188Q   26124.14887910 -.00000478  00000+0 -13850-2 0  9996
2 61608  87.8937  29.7366 0001146  49.2000 310.9227 13.11414681 78712
ONEWEB-0704             
1 61609U 24188R   26124.01116990  .00000351  00000+0  96939-3 0  9994
2 61609  87.8871  45.0392 0000956  53.0836 307.0379 13.10368821 77502
ONEWEB-0705             
1 61610U 24188S   26124.01614750  .00000152  00000+0  39977-3 0  9991
2 61610  87.8861  45.0460 0000966 110.2850 249.8381 13.10367377 69672
ONEWEB-0706             
1 61611U 24188T   26124.15392661  .00000659  00000+0  18503-2 0  9994
2 61611  87.8855  45.0266 0001270  72.3375 287.7891 13.10372988 77613
